#dP2022  6 17  0  0  0.00000000      96 __u+U ITR00 FIT  IAC
## 2214 432000.00000000   900.00000000 59747 0.0000000000000
+  115   C07C08C09C10C11C12C13C14C16C19C20C21C22C23C24C25C26
+        C27C28C29C30C32C33C34C35C36C37C38C39C40C41C42C43C44
+        C45C46E01E02E03E04E05E07E08E09E10E11E12E13E14E15E18
+        E19E21E24E25E26E27E30E31E33E34E36G01G02G03G04G05G06
+        G07G08G09G10G11G12G13G14G15G16G17G18G19G20G21G22G23
+        G24G25G26G27G28G29G30G31G32J02J03R01R02R03R04R05R07
+        R08R09R11R12R13R14R15R17R18R19R20R21R24  0  0  0  0
++        11  8  7 10  7  8  9  7  7  6  6  7  6  5  8  7  5
++         8  6  8  8  7  7  7  8  6  8  7  8  8  6  7  6  7
++         6  7  6  6  6  7  7  7  7  6  6  5  6  7  6  7  6
++         7  7  5  6  7  7  6  7  7  7  6  6  6  5  7  6  4
++         7  7  7  5  5  7  7  6  5  6  7  5  6  6  7  6  7
++         5  6  6  6  7  6  6  5  6  7  7  8  8  7  6  8  6
++         6  7  6  7  6  6  7  6  7  6  6  6  6  0  0  0  0
%c M  cc GPS ccc cccc cccc cccc cccc ccccc ccccc ccccc ccccc
%c cc cc ccc ccc cccc cccc cccc cccc ccccc ccccc ccccc ccccc
%f  0.0000000  0.000000000  0.00000000000  0.000000000000000
%f  0.0000000  0.000000000  0.00000000000  0.000000000000000
%i    0    0    0    0      0      0      0      0         0
%i    0    0    0    0      0      0      0      0         0
/* INFORMATION & ANALYSIS CENTER (IAC)      ULTRA-RAPID DATA
/* S/V CLOCKS ARE ALIGNED TO GNSS TIME                      
/* G:C1WC2W R:C1PC2P E:C1XC5X C:C2IC6I J:C1CC2S             
/* PCV:IGS14_2196 OL/AL:FES2004  NONE     YN ORB:CoN CLK:CoN
*  2022 06 17  8  0  0.00000000
PC07  -5579.168008  40066.931722 -11595.891379   -309.900838
PC08  -1489.033807  22412.048104  35705.882157    365.997448
PC09 -11379.530745  28658.228479 -28599.670052   -891.204674
PC10    367.378274  41548.820015  -4998.998822    125.655487
PC11  -8937.314664  19459.831234  17932.137023    419.552511
PC12 -22527.264228  16284.960248   2396.522088   -596.776063
PC13   4472.317955  25668.907954  33338.987159     -1.594250
PC14  -1088.197733  27532.977901   4223.838319    506.122576
PC16 -20639.698649  29516.059083 -21955.295054    139.863130
PC19  -5429.178654 -26874.127492   5301.635931    -18.633313
PC20   6214.781471 -24706.830175 -11413.544363   -963.314578
PC21 -14932.979181   7403.116965  22396.169196   -501.118188
PC22 -14396.633612 -13645.599416  19645.273989   -964.266026
PC23  24417.703388  13426.426568  -1480.177166   -934.967005
PC24  -9655.701398  13304.528542 -22552.356215   -970.224735
PC25  12031.012767  18876.638701 -16679.643575   -720.681753
PC26 -23161.983703   1368.556784 -15489.579002    722.311561
PC27  24899.572668 -10910.872936   6247.744502    740.270861
PC28  19251.028058   3915.731121  19818.606651     79.529706
PC29  -2369.564494 -17011.630280 -22005.636789    569.510976
PC30  16138.771382 -20202.240826 -10481.140804    500.002695
PC32  14875.340043  -7510.236939 -22369.450038   -969.101795
PC33   5509.581492  26849.894691  -5172.681494   -970.363602
PC34 -15378.987880  20352.336819  11323.353041   -378.986579
PC35 -18697.042869  -4225.742595 -20306.170741    324.496243
PC36 -11030.002482 -19162.684623  17052.896000   -968.527536
PC37  23781.721623    129.279092  14633.252422   -909.724815
PC38 -10505.941152  20725.624097  35210.266436      3.750361
PC39 -23989.431904  30325.465821 -16996.192186     34.995198
PC40 -10779.778983  37444.546462 -15910.214062    278.114100
PC41  14314.317285  14080.580152 -19324.535566     -8.755727
PC42  -6911.813825  24048.053984  12375.749717   -959.912289
PC43   1601.819111  17456.091910  21703.440404   -917.691483
PC44 -24568.788624  11599.566032  -6459.812559    695.020438
PC45 -24521.588539 -13245.996231   1207.234640    785.619352
PC46   8028.312291 -14059.934572  22736.071311   -383.478748
PE01 -11533.518494  12438.367941 -24254.569253   -497.767247
PE02  11418.039206 -12586.886076  24234.527404    306.202664
PE03  17485.980774 -22403.939379  -8299.120132   -569.673611
PE04  -5599.213425  27320.734262  -9903.386845  -1051.833488
PE05  19336.766792  -4187.604562 -22009.516682   -171.385661
PE07  -9920.267488 -16189.539977  22722.837370   -679.177877
PE08   5382.119824 -27285.812936  10161.642652   -548.039672
PE09   9892.681386  16023.010432 -22825.155855   -556.325552
PE10   9241.544581  14772.769582  23912.782990   -520.258832
PE11  19847.503615  10950.507349  19009.540469   3321.457638
PE12  -2306.871598  16221.287724  24642.982866    -15.399218
PE13 -19246.203325 -11189.198139 -19516.224774    429.333289
PE14  -9226.807839 -20353.365879 -23367.385320  -1805.434502
PE15   2427.699426 -16157.828966 -24683.729428    738.881687
PE18  12368.104108   9063.633085  18454.023635  -1319.906627
PE19 -18372.139302  20676.771380  10552.805826  -5350.002327
PE21 -20712.427225  -6253.778629 -20199.269134   -740.653379
PE24  18031.459838  23267.768169   3194.012947   -675.283878
PE25  20778.115386   6532.371107  20052.156289   -577.879387
PE26 -29522.214665    805.958841  -1995.490389  -1272.262505
PE27 -18627.736512 -22591.810749  -4308.609092   -324.023994
PE30  -4695.564188 -25260.031497  14683.226796   -599.302495
PE31   5616.488887  25488.192234 -13954.542495   -498.413518
PE33 -22572.081064  11568.381561  15262.494083   -455.555075
PE34  22392.503642 -11709.225148 -15434.226061   -522.571633
PE36  29448.920690   -312.454667   2924.556283   -389.301250
PG01 -13603.832585 -13305.885634 -18981.765711    339.606143
PG02 -10077.913621  14542.996827  20507.531248   -652.603156
PG03 -12717.746458 -23375.527952    689.959576   -281.125158
PG04  -4550.564466 -17441.520447  19487.080341   -156.161813
PG05   3069.413368  22991.450007  12636.614009    -85.835706
PG06 -23193.381487   6412.555304  11392.236799    347.066359
PG07 -25183.096190  -6311.747821   7140.311643    321.615303
PG08   1740.106854 -22138.309869 -14344.687574    -72.502393
PG09 -13086.926092  -7975.028611  21625.596291   -327.635719
PG10  16257.862451    423.351715 -20911.974261   -458.117498
PG11 -11704.973376  12872.216663  20056.144941    -14.556045
PG12   8763.050186  25007.917560  -2813.210427   -232.414891
PG13 -11815.065646  22389.670546  -7882.282523    331.489783
PG14 -16950.691711  -1920.228654 -20380.050307   -111.619770
PG15   1643.134380  22226.809878 -14624.324367    -52.588749
PG16   3566.817390 -20371.400803  16125.340607   -509.528874
PG17 -19356.802032   9050.928690 -15375.674843    626.036114
PG18  24921.766135   6293.427393   6918.380077    139.786725
PG19 -19888.931098  14923.150162  -9273.286710    171.789300
PG20  -5491.749551  16786.847867  19903.343368    510.725922
PG21  -3777.750652 -14710.073041 -21208.654022    161.307953
PG22  18655.018149 -17633.047842  -6028.652472    277.170300
PG23  18463.627341  11167.179451 -15569.991715    -28.458648
PG24   9852.852402  14634.633381 -20262.391387    218.864539
PG25  17118.930065  18007.358337   9470.123199    338.365680
PG26  10613.954995 -12208.836035  20937.273682    212.849441
PG27  12044.147528 -23227.401243  -3303.889234    216.132534
PG28 -12770.616709   7762.139978 -21461.619189    336.762689
PG29  12301.533454   8181.557245  22020.740285   -524.860483
PG30 -26519.903643    606.669243  -2946.806283   -531.622303
PG31  22012.080268  -7746.115018  12976.427957   -182.138489
PG32  18998.171142 -11790.557483 -14039.054854   -153.281775
PJ02 -20954.154913  20659.601259 -25609.253228     -0.758306
PJ03 -28874.950459  29652.534058  13585.658538     -2.913345
PR01   9372.233989 -17641.989035 -15866.971750     10.066801
PR02   1995.846280 -25262.689336   2666.297094    521.523848
PR03  -6502.363722 -16953.875423  17937.804003     58.576663
PR04 -10935.733074    574.240258  23069.578376    146.855972
PR05  -9612.905807  17828.487116  15533.426795     94.783908
PR07   6708.586253  16448.362903 -18284.530855     36.545221
PR08  11027.795137   -732.951408 -22928.094911    -65.738724
PR09   6579.015387  16066.620620 -18635.796090     60.921305
PR11  20871.255712   7949.867898  12320.328401     35.962163
PR12  10049.237672  -6047.945247  22681.105555     18.893740
PR13  -5470.727549 -15505.715999  19490.800705    -23.681279
PR14 -19092.623852 -16458.135076   3992.881823     25.217057
PR15 -20592.507156  -7562.690229 -12999.077858     95.323355
PR17 -11673.482328  -5887.441468 -21894.320201    535.634795
PR18 -22727.327393   4049.202185 -10900.725104    120.559268
PR19 -22628.303620  10808.909851   4650.637639   -193.018136
PR20  -7530.024437  12713.320636  20803.996000    -72.781450
PR21  13038.854196   5003.893343  21343.287435   -310.106821
PR24   6322.026517 -13157.118003 -20913.615090     99.102469
EOF
